BEIDOU 3 (C01)          
1 36287U 10001A   21088.48325076 -.00000287  00000-0  00000+0 0  9999
2 36287   1.7537  42.9040 0002861  84.5962  13.9679  1.00273036 41058
BEIDOU 5 (C06)          
1 36828U 10036A   21088.02745992 -.00000135  00000-0  00000-0 0  9994
2 36828  54.1717 180.3423 0109188 234.6113 259.9413  1.00286222 39101
BEIDOU 6 (C04)          
1 37210U 10057A   21088.27179094 -.00000121  00000-0  00000-0 0  9999
2 37210   1.0024  56.1669 0002795 191.3306 197.1347  1.00270303 38178
BEIDOU 7 (C07)          
1 37256U 10068A   21088.47871449 -.00000194  00000-0  00000+0 0  9995
2 37256  50.9975 294.9475 0082230 215.8231 328.2608  1.00281387 37680
BEIDOU 8 (C08)          
1 37384U 11013A   21088.10861493 -.00000177  00000-0  00000+0 0  9997
2 37384  59.6697  58.7127 0053696 207.8321  79.0957  1.00276496 36552
BEIDOU 9 (C09)          
1 37763U 11038A   21088.03114742 -.00000096  00000-0  00000-0 0  9996
2 37763  54.4600 182.7744 0079777 224.7914 245.6297  1.00281772 35535
BEIDOU 10 (C10)         
1 37948U 11073A   21088.04349463 -.00000133  00000-0  00000-0 0  9993
2 37948  51.0997 294.5684 0069182 214.5638 149.1809  1.00271413 34296
BEIDOU 11 (C05)         
1 38091U 12008A   21087.92515359  .00000048  00000-0  00000-0 0  9991
2 38091   1.3802  64.9117 0008333 303.1315 210.4046  1.00277818 33364
BEIDOU 12 (C11)         
1 38250U 12018A   21088.09676741 -.00000080  00000-0  00000-0 0  9998
2 38250  56.7575   8.2648 0022313 252.4619 165.9901  1.86234430 60797
BEIDOU 13 (C12)         
1 38251U 12018B   21087.79614100 -.00000080  00000-0  00000+0 0  9995
2 38251  56.6799   7.6290 0013631 259.1636   2.1625  1.86234288 60782
BEIDOU 15 (C14)         
1 38775U 12050B   21088.19526184  .00000062  00000-0  00000-0 0  9991
2 38775  55.1697 126.6886 0015223 315.7798  50.5177  1.86232344 58174
BEIDOU 16 (C02)         
1 38953U 12059A   21088.47199734 -.00000181  00000-0  00000+0 0  9998
2 38953   1.7780  84.9378 0009481 276.4255  79.5935  1.00272722 30931
BEIDOU 17 (C31)         
1 40549U 15019A   21087.92636226 -.00000156  00000-0  00000-0 0  9995
2 40549  52.6203 317.9186 0036591 187.5615 110.7759  1.00283968 21969
BEIDOU 18 (C57)         
1 40748U 15037A   21087.99350972 -.00000081  00000-0  00000-0 0  9991
2 40748  55.9443   6.7575 0005452 354.5630 309.0689  1.86233393 38618
BEIDOU 19 (C58)         
1 40749U 15037B   21088.26490201 -.00000082  00000-0  00000-0 0  9994
2 40749  55.9463   6.7360 0006856 324.0535 297.9940  1.86232325 38617
BEIDOU 20 (C18)         
1 40938U 15053A   21087.21389358 -.00000097  00000-0  00000-0 0  9992
2 40938  52.1883 280.9845 0046972 189.3584 245.9539  1.00255139 20235
BEIDOU IGSO-6 (C13)     
1 41434U 16021A   21088.22011946 -.00000143  00000-0  00000-0 0  9999
2 41434  57.4508  57.4846 0040293 216.9459  87.7693  1.00285784 18368
BEIDOU-2 G7 (C03)       
1 41586U 16037A   21088.12251076 -.00000361  00000-0  00000-0 0  9995
2 41586   1.5314  64.8002 0009634  10.8892 265.7118  1.00272869 17676
BEIDOU-3 M1 (C19)       
1 43001U 17069A   21088.48452212  .00000060  00000-0  00000+0 0  9993
2 43001  55.3262 126.6190 0011269 286.5401  69.9358  1.86231790 23106
BEIDOU-3 M2 (C20)       
1 43002U 17069B   21087.54197481  .00000067  00000-0  00000-0 0  9992
2 43002  55.3235 126.6874 0009846 304.8341 183.2845  1.86231526 23086
BEIDOU-3 M3 (C27)       
1 43107U 18003A   21088.06042589 -.00000082  00000-0  00000-0 0  9991
2 43107  55.3850   7.8711 0005154  30.1533 251.4332  1.86232549 21853
BEIDOU-3 M4 (C28)       
1 43108U 18003B   21087.99590362 -.00000082  00000-0  00000+0 0  9999
2 43108  55.3788   7.8651 0003388 267.0909  16.4167  1.86232548 21856
BEIDOU-3 M5 (C21)       
1 43207U 18018A   21088.02047362  .00000064  00000-0  00000-0 0  9997
2 43207  55.2838 126.7653 0006744 321.9970  38.0450  1.86231635 21245
BEIDOU-3 M6 (C22)       
1 43208U 18018B   21088.08715547  .00000064  00000-0  00000-0 0  9991
2 43208  55.2818 126.7674 0009470 295.3268  64.6640  1.86231759 21243
BEIDOU-3 M7 (C29)       
1 43245U 18029A   21088.20132245 -.00000082  00000-0  00000-0 0  9997
2 43245  55.3203   5.6631 0001565 341.9191 304.2822  1.86232641 20392
BEIDOU-3 M8 (C30)       
1 43246U 18029B   21088.13078905 -.00000082  00000-0  10000-3 0  9996
2 43246  55.3167   5.6970 0005449 346.6452 298.3885  1.86232876 20386
BEIDOU IGSO-7 (C16)     
1 43539U 18057A   21087.89383007 -.00000141  00000-0  00000-0 0  9998
2 43539  55.0551 179.6817 0036877 219.7358 220.2837  1.00293901 10046
BEIDOU-3 M9 (C23)       
1 43581U 18062A   21088.20278735  .00000017  00000-0  00000-0 0  9999
2 43581  54.4358 247.3491 0001895 306.6873 236.5116  1.86231814 18139
BEIDOU-3 M10 (C24)      
1 43582U 18062B   21087.92137438  .00000017  00000-0  00000+0 0  9991
2 43582  54.4356 247.3493 0005986  17.3652  68.4483  1.86232061 18130
BEIDOU-3 M11 (C25)      
1 43602U 18067A   21088.05393412  .00000017  00000-0  00000-0 0  9991
2 43602  54.5128 245.9205 0007261   7.0906 209.9296  1.86231588 17622
BEIDOU-3 M12 (C26)      
1 43603U 18067B   21088.13544124  .00000017  00000-0  00000-0 0  9999
2 43603  54.5096 245.8854 0004438   0.9253 181.2241  1.86231578 17649
BEIDOU-3 M13 (C32)      
1 43622U 18072A   21088.25678003  .00000062  00000-0  00000-0 0  9993
2 43622  55.2477 126.3277 0007872 282.6099  11.1180  1.86231623 17155
BEIDOU-3 M14 (C33)      
1 43623U 18072B   21088.21739205  .00000062  00000-0  00000-0 0  9992
2 43623  55.2489 126.3205 0006059 303.1205  54.4335  1.86231574 17151
BEIDOU-3 M15 (C34)      
1 43647U 18078A   21087.72358743 -.00000081  00000-0  10000-3 0  9999
2 43647  55.2137   5.8709 0008096 351.3299 290.3777  1.86232247 16651
BEIDOU-3 M16 (C35)      
1 43648U 18078B   21088.11230284 -.00000082  00000-0  10000-3 0  9994
2 43648  55.2083   5.8694 0005635 358.8416  92.0759  1.86232312 16687
BEIDOU-3 G1 (C59)       
1 43683U 18085A   21088.51180624 -.00000287  00000-0  00000+0 0  9999
2 43683   1.1914 236.7251 0002702  55.5817 219.1197  1.00271284  8957
BEIDOU-3 M17 (C36)      
1 43706U 18093A   21087.86806326  .00000017  00000-0  00000+0 0  9995
2 43706  54.5168 247.2124 0007584 275.3611 268.3726  1.86231840 16028
BEIDOU-3 M18 (C37)      
1 43707U 18093B   21088.24665878  .00000017  00000-0  00000-0 0  9995
2 43707  54.5175 247.1911 0006928 307.1391 221.2049  1.86232063 16035
BEIDOU-3 IGSO-1 (C38)   
1 44204U 19023A   21088.06012438 -.00000195  00000-0  00000-0 0  9998
2 44204  55.9074  57.7889 0015901 206.2490  57.7295  1.00263603  7248
BEIDOU-2 G8             
1 44231U 19027A   21088.26873769 -.00000255  00000-0  00000-0 0  9993
2 44231   0.3777 321.5947 0005513 249.8665 216.6887  1.00274782  6965
BEIDOU-3 IGSO-2 (C39)   
1 44337U 19035A   21087.89326295 -.00000122  00000-0  00000-0 0  9997
2 44337  55.0860 175.7201 0017538 191.5907 246.4857  1.00256618  6580
BEIDOU-3 M23 (C45)      
1 44542U 19061A   21087.80097885  .00000017  00000-0  10000-3 0  9991
2 44542  54.7422 247.2702 0007701 342.3936 200.4649  1.86231308 10282
BEIDOU-3 M24 (C46)      
1 44543U 19061B   21088.22379707  .00000018  00000-0  10000-3 0  9996
2 44543  54.7422 247.2255 0004690 338.0270  39.0518  1.86231661 10309
BEIDOU-3 IGSO-3         
1 44709U 19073A   21087.53509970 -.00000124  00000-0  00000-0 0  9998
2 44709  57.9697 300.9857 0019235 189.2644 352.5846  1.00251473  5332
BEIDOU-3 M21            
1 44793U 19078A   21088.09495572 -.00000082  00000-0  10000-3 0  9997
2 44793  55.0666   5.9441 0007609   2.3271 122.8653  1.86228475  9152
BEIDOU-3 M22            
1 44794U 19078B   21087.09801314 -.00000081  00000-0  00000+0 0  9996
2 44794  55.0366   5.9743 0005652 353.1082  94.5514  1.86232911  9137
BEIDOU-3 M19            
1 44864U 19090A   21088.25393400  .00000062  00000-0  00000-0 0  9998
2 44864  55.1833 126.5633 0017353 265.8446  71.4147  1.86231871  8732
BEIDOU-3 M20            
1 44865U 19090B   21088.16878369  .00000063  00000-0  00000-0 0  9992
2 44865  55.1868 126.5953 0016107 280.1724  89.9219  1.86231853  8724
BEIDOU-3 G2             
1 45344U 20017A   21088.23475344 -.00000152  00000-0  00000-0 0  9990
2 45344   2.5370 334.4596 0002835  71.1279 305.7802  1.00271256  4168
BEIDOU-3 G3             
1 45807U 20040A   21088.26193329 -.00000366  00000-0  00000-0 0  9990
2 45807   2.4701 298.4102 0008770  14.2599  79.0627  1.00273173  2971
